0 SL-6 R/B(2)
1 16186U 85098D   13288.20696163  .00000618  00000-0  00000+0 0  9878
2 16186 069.5158 244.3820 5566189 120.6040 080.4595 02.03405855207905
0 SL-6 R/B(2)
1 16186U 85098D   13295.49889321  .00000226  00000-0  00000+0 0  9883
2 16186 069.5178 243.9993 5561798 120.3941 020.2123 02.03416556208057
